NORAD_CAT_ID,OBJECT_NAME,OBJECT_TYPE,EPOCH,MEAN_MOTION,ECCENTRICITY,INCLINATION,RA_OF_ASC_NODE,ARG_OF_PERICENTER,MEAN_ANOMALY,BSTAR,MEAN_MOTION_DOT,MEAN_MOTION_DDOT,TLE_LINE0,TLE_LINE1,TLE_LINE2,SEMIMAJOR_AXIS,PERIOD,APOGEE,PERIGEE,DECAYED
52547.0,STARLINK-3869,PAYLOAD,2022-12-05 07:33:19,15.08839291,0.0002248,53.2183,77.9294,34.5827,325.5311,7.8144e-05,9.56e-06,0.0,0 STARLINK-3869,1 52547U 22051Q   22339.31480463  .00000956  00000-0  78144-4 0  9999,2 52547  53.2183  77.9294 0002248  34.5827 325.5311 15.08839291 31662,6917.8830000000025,95.438,541.303,538.192,0.0
52547.0,STARLINK-3869,PAYLOAD,2022-12-06 05:48:42,15.08842888,0.0002119,53.2181,73.7663,35.4035,324.7097,0.00016169,2.286e-05,0.0,0 STARLINK-3869,1 52547U 22051Q   22340.24215997  .00002286  00000-0  16169-3 0  9997,2 52547  53.2181  73.7663 0002119  35.4035 324.7097 15.08842888 31873,6917.871999999999,95.437,541.202,538.271,0.0
52547.0,STARLINK-3869,PAYLOAD,2022-12-06 07:24:05,15.0884117,0.0002238,53.2182,73.4689,36.5569,323.5576,0.00014662,2.046e-05,0.0,0 STARLINK-3869,1 52547U 22051Q   22340.30840232  .00002046  00000-0  14662-3 0  9990,2 52547  53.2182  73.4689 0002238  36.5569 323.5576 15.08841170 31811,6917.877,95.437,541.29,538.194,0.0
52547.0,STARLINK-3869,PAYLOAD,2022-12-06 13:45:39,15.0883299,0.000213,53.2191,72.2805,42.48,317.6356,-3.8592e-05,-9.02e-06,0.0,0 STARLINK-3869,1 52547U 22051Q   22340.57337225 -.00000902  00000-0 -38592-4 0  9992,2 52547  53.2191  72.2805 0002130  42.4800 317.6356 15.08832990 31857,6917.901999999999,95.438,541.24,538.293,0.0
52547.0,STARLINK-3869,PAYLOAD,2022-12-07 07:14:53,15.08838892,0.0002064,53.2186,69.0088,39.2461,320.868,1.3086e-05,-8e-07,0.0,0 STARLINK-3869,1 52547U 22051Q   22341.30200945 -.00000080  00000-0  13086-4 0  9999,2 52547  53.2186  69.0088 0002064  39.2461 320.8680 15.08838892 32035,6917.884,95.438,541.177,538.321,0.0
52547.0,STARLINK-3869,PAYLOAD,2022-12-07 13:36:26,15.08838955,0.0002026,53.2181,67.8191,37.6947,322.4186,9.0988e-07,-2.74e-06,0.0,0 STARLINK-3869,1 52547U 22051Q   22341.56697062 -.00000274  00000-0  90988-6 0  9990,2 52547  53.2181  67.8191 0002026  37.6947 322.4186 15.08838955 32006,6917.884,95.438,541.15,538.347,0.0
52547.0,STARLINK-3869,PAYLOAD,2022-12-08 11:51:48,15.08853542,0.0002063,53.2196,63.6566,30.8219,329.2894,0.00013463,1.856e-05,0.0,0 STARLINK-3869,1 52547U 22051Q   22342.49431513  .00001856  00000-0  13463-3 0  9996,2 52547  53.2196  63.6566 0002063  30.8219 329.2894 15.08853542 32145,6917.839,95.437,541.131,538.2769999999998,0.0
52547.0,STARLINK-3869,PAYLOAD,2022-12-09 05:20:56,15.08959131,0.0002451,53.219,60.3883,351.2148,8.88,0.00048586,7.478e-05,0.0,0 STARLINK-3869,1 52547U 22051Q   22343.22287706  .00007478  00000-0  48586-3 0  9991,2 52547  53.2190  60.3883 0002451 351.2148   8.8800 15.08959131 32325,6917.516,95.43,541.077,537.686,0.0
52547.0,STARLINK-3869,PAYLOAD,2022-12-09 16:28:46,15.08844558,0.0002163,53.2188,58.3069,29.5104,330.601,-0.00041353,-6.865e-05,0.0,0 STARLINK-3869,1 52547U 22051Q   22343.68664626 -.00006865  00000-0 -41353-3 0  9997,2 52547  53.2188  58.3069 0002163  29.5104 330.6010 15.08844558 32394,6917.866,95.437,541.2280000000002,538.235,0.0
52547.0,STARLINK-3869,PAYLOAD,2022-12-10 05:11:51,15.08793877,0.0002695,53.2177,55.9282,313.7333,46.3435,0.00079491,0.0001237,0.0,0 STARLINK-3869,1 52547U 22051Q   22344.21656968  .00012370  00000-0  79491-3 0  9997,2 52547  53.2177  55.9282 0002695 313.7333  46.3435 15.08793877 32472,6918.021,95.44,541.751,538.0219999999998,0.0
52547.0,STARLINK-3869,PAYLOAD,2022-12-10 11:33:26,15.08809351,0.0002086,53.2194,54.7399,28.602,331.5087,-0.00052794,-8.674e-05,0.0,0 STARLINK-3869,1 52547U 22051Q   22344.48155933 -.00008674  00000-0 -52794-3 0  9993,2 52547  53.2194  54.7399 0002086  28.6020 331.5087 15.08809351 32518,6917.974,95.439,541.2819999999998,538.396,0.0
52547.0,STARLINK-3869,PAYLOAD,2022-12-11 11:24:11,15.08831928,0.0002373,53.219,50.2754,37.5362,322.5796,0.00024412,3.598e-05,0.0,0 STARLINK-3869,1 52547U 22051Q   22345.47513094  .00003598  00000-0  24412-3 0  9993,2 52547  53.2190  50.2754 0002373  37.5362 322.5796 15.08831928 32665,6917.905,95.438,541.4119999999998,538.128,0.0
52547.0,STARLINK-3869,PAYLOAD,2022-12-11 14:34:57,15.08839206,0.0002234,53.218,49.6803,37.1234,322.9912,0.00033103,4.984e-05,0.0,0 STARLINK-3869,1 52547U 22051Q   22345.60761215  .00004984  00000-0  33103-3 0  9995,2 52547  53.2180  49.6803 0002234  37.1234 322.9912 15.08839206 32617,6917.8830000000025,95.438,541.293,538.202,0.0
52547.0,STARLINK-3869,PAYLOAD,2022-12-12 09:39:35,15.08839401,0.0002156,53.218,46.1104,39.8506,320.2644,8.1041e-05,1.002e-05,0.0,0 STARLINK-3869,1 52547U 22051Q   22346.40249331  .00001002  00000-0  81041-4 0  9997,2 52547  53.2180  46.1104 0002156  39.8506 320.2644 15.08839401 32730,6917.882,95.438,541.239,538.256,0.0
52547.0,STARLINK-3869,PAYLOAD,2022-12-13 04:44:12,15.08844678,0.0002167,53.2193,42.5443,39.7839,320.3312,4.3724e-05,4.08e-06,0.0,0 STARLINK-3869,1 52547U 22051Q   22347.19736943  .00000408  00000-0  43724-4 0  9999,2 52547  53.2193  42.5443 0002167  39.7839 320.3312 15.08844678 32926,6917.866,95.437,541.23,538.232,0.0
52547.0,STARLINK-3869,PAYLOAD,2022-12-13 12:41:08,15.08838145,0.0002398,53.2182,41.0562,33.5368,326.5775,-6.9165e-05,-1.389e-05,0.0,0 STARLINK-3869,1 52547U 22051Q   22347.52857207 -.00001389  00000-0 -69165-4 0  9991,2 52547  53.2182  41.0562 0002398  33.5368 326.5775 15.08838145 32906,6917.886,95.438,541.41,538.092,0.0
52547.0,STARLINK-3869,PAYLOAD,2022-12-13 14:16:32,15.08837741,0.0002364,53.2191,40.7594,32.9182,327.1957,-1.3676e-05,-5.06e-06,0.0,0 STARLINK-3869,1 52547U 22051Q   22347.59481744 -.00000506  00000-0 -13676-4 0  9993,2 52547  53.2191  40.7594 0002364  32.9182 327.1957 15.08837741 32985,6917.887,95.438,541.388,538.117,0.0
52547.0,STARLINK-3869,PAYLOAD,2022-12-14 12:31:56,15.08839883,0.0002491,53.2192,36.5969,32.7106,327.404,9.5509e-05,1.232e-05,0.0,0 STARLINK-3869,1 52547U 22051Q   22348.52217627  .00001232  00000-0  95509-4 0  9994,2 52547  53.2192  36.5969 0002491  32.7106 327.4040 15.08839883 33054,6917.880999999999,95.438,541.469,538.023,0.0
52547.0,STARLINK-3869,PAYLOAD,2022-12-14 20:28:52,15.08831364,0.0002698,53.2169,35.1101,32.4654,327.6504,-7.9706e-05,-1.557e-05,0.0,0 STARLINK-3869,1 52547U 22051Q   22348.85338074 -.00001557  00000-0 -79706-4 0  9993,2 52547  53.2169  35.1101 0002698  32.4654 327.6504 15.08831364 33104,6917.906999999997,95.438,541.638,537.905,0.0
52547.0,STARLINK-3869,PAYLOAD,2022-12-15 12:22:43,15.08842388,0.0002491,53.2177,32.1367,27.932,332.1806,0.00011454,1.535e-05,0.0,0 STARLINK-3869,1 52547U 22051Q   22349.51577702  .00001535  00000-0  11454-3 0  9999,2 52547  53.2177  32.1367 0002491  27.9320 332.1806 15.08842388 33276,6917.873000000001,95.437,541.461,538.015,0.0
52547.0,STARLINK-3869,PAYLOAD,2022-12-15 20:19:38,15.08842562,0.0002511,53.2179,30.6498,28.5374,331.5756,0.00022244,3.254e-05,0.0,0 STARLINK-3869,1 52547U 22051Q   22349.84697831  .00003254  00000-0  22244-3 0  9990,2 52547  53.2179  30.6498 0002511  28.5374 331.5756 15.08842562 33254,6917.873000000001,95.437,541.475,538.0,0.0
52547.0,STARLINK-3869,PAYLOAD,2022-12-16 12:13:29,15.08854586,0.0002682,53.2171,27.677,27.7412,332.3723,0.00042852,6.541e-05,0.0,0 STARLINK-3869,1 52547U 22051Q   22350.50937382  .00006541  00000-0  42852-3 0  9992,2 52547  53.2171  27.6770 0002682  27.7412 332.3723 15.08854586 33351,6917.8359999999975,95.437,541.556,537.845,0.0
52547.0,STARLINK-3869,PAYLOAD,2022-12-16 13:48:53,15.08845989,0.0002749,53.2163,27.3802,25.8634,334.2495,0.00020322,2.948e-05,0.0,0 STARLINK-3869,1 52547U 22051Q   22350.57561628  .00002948  00000-0  20322-3 0  9990,2 52547  53.2163  27.3802 0002749  25.8634 334.2495 15.08845989 33437,6917.861999999999,95.437,541.629,537.825,0.0
52547.0,STARLINK-3869,PAYLOAD,2022-12-17 12:04:17,15.08844854,0.0002618,53.2177,23.2164,29.4989,330.615,0.00011266,1.505e-05,0.0,0 STARLINK-3869,1 52547U 22051Q   22351.50297537  .00001505  00000-0  11266-3 0  9994,2 52547  53.2177  23.2164 0002618  29.4989 330.6150 15.08844854 33502,6917.866,95.437,541.5419999999998,537.919,0.0
52547.0,STARLINK-3869,PAYLOAD,2022-12-17 13:39:40,15.08845925,0.0002607,53.2176,22.9189,29.4805,330.6334,0.00013335,1.835e-05,0.0,0 STARLINK-3869,1 52547U 22051Q   22351.56921489  .00001835  00000-0  13335-3 0  9995,2 52547  53.2176  22.9189 0002607  29.4805 330.6334 15.08845925 33514,6917.861999999999,95.437,541.531,537.924,0.0
52547.0,STARLINK-3869,PAYLOAD,2022-12-18 11:55:04,15.08839351,0.0002642,53.2184,18.7557,31.5575,328.5575,-5.2271e-05,-1.12e-05,0.0,0 STARLINK-3869,1 52547U 22051Q   22352.49658047 -.00001120  00000-0 -52271-4 0  9997,2 52547  53.2184  18.7557 0002642  31.5575 328.5575 15.08839351 33724,6917.882,95.438,541.575,537.92,0.0
52547.0,STARLINK-3869,PAYLOAD,2022-12-18 13:30:27,15.0884014,0.0002628999999999,53.2183,18.4582,31.2678,328.847,-4.8513e-05,-1.061e-05,0.0,0 STARLINK-3869,1 52547U 22051Q   22352.56281958 -.00001061  00000-0 -48513-4 0  9996,2 52547  53.2183  18.4582 0002629  31.2678 328.8470 15.08840140 33662,6917.88,95.438,541.564,537.9259999999998,0.0
52547.0,STARLINK-3869,PAYLOAD,2022-12-19 08:35:05,15.08841142,0.000265,53.2183,14.89,28.7884,331.3254,2.8865e-05,1.71e-06,0.0,0 STARLINK-3869,1 52547U 22051Q   22353.35769720  .00000171  00000-0  28865-4 0  9999,2 52547  53.2183  14.8900 0002650  28.7884 331.3254 15.08841142 33785,6917.877,95.437,541.575,537.909,0.0
52547.0,STARLINK-3869,PAYLOAD,2022-12-19 18:07:22,15.08851965,0.0002657,53.2184,13.1057,29.9966,330.1178,0.00013515,1.864e-05,0.0,0 STARLINK-3869,1 52547U 22051Q   22353.75512651  .00001864  00000-0  13515-3 0  9997,2 52547  53.2184  13.1057 0002657  29.9966 330.1178 15.08851965 33845,6917.844,95.437,541.547,537.871,0.0
